{
  "type": "FeatureCollection",
  "features": [
    {
      "type": "Feature",
      "properties": {
        "norad_id": 31307,
        "name": "GALAXY 17 (G-17)",
        "group": "intelsat",
        "lat": -2.135380077804441,
        "lon": -39.231230377140946,
        "alt_km": 35779.8325973014,
        "timestamp": "2025-12-10T21:43:21.754152+00:00",
        "meta_object_name": "GALAXY 17 (G-17)",
        "meta_object_id": "2007-016B",
        "meta_epoch": "2025-12-10T05:31:38.713152",
        "meta_mean_motion": 1.00272548,
        "meta_eccentricity": 0.00060079,
        "meta_inclination": 2.4939,
        "meta_ra_of_asc_node": 82.3112,
        "meta_arg_of_pericenter": 162.8235,
        "meta_mean_anomaly": 191.995,
        "meta_ephemeris_type": 0,
        "meta_classification_type": "U",
        "meta_norad_cat_id": 31307,
        "meta_element_set_no": 999,
        "meta_rev_at_epoch": 6790,
        "meta_bstar": 0,
        "meta_mean_motion_dot": -2.03e-06,
        "meta_mean_motion_ddot": 0,
        "tle_line1": "1 31307U 07016B   25344.23030918 -.00000203  00000+0  00000+0 0  9996",
        "tle_line2": "2 31307   2.4939  82.3112 0006007 162.8235 191.9950  1.00272548 67905"
      },
      "geometry": {
        "type": "Point",
        "coordinates": [
          -39.231230377140946,
          -2.135380077804441
        ]
      }
    },
    {
      "type": "Feature",
      "properties": {
        "norad_id": 31862,
        "name": "DIRECTV 10",
        "group": "intelsat",
        "lat": -0.0005079781681339571,
        "lon": -57.06693460812345,
        "alt_km": 35786.03072787268,
        "timestamp": "2025-12-10T21:43:21.754165+00:00",
        "meta_object_name": "DIRECTV 10",
        "meta_object_id": "2007-032A",
        "meta_epoch": "2025-12-10T08:12:19.171584",
        "meta_mean_motion": 1.00271553,
        "meta_eccentricity": 3.853e-05,
        "meta_inclination": 0.0087,
        "meta_ra_of_asc_node": 98.9872,
        "meta_arg_of_pericenter": 118.0776,
        "meta_mean_anomaly": 242.5518,
        "meta_ephemeris_type": 0,
        "meta_classification_type": "U",
        "meta_norad_cat_id": 31862,
        "meta_element_set_no": 999,
        "meta_rev_at_epoch": 4370,
        "meta_bstar": 0,
        "meta_mean_motion_dot": -9.9e-07,
        "meta_mean_motion_ddot": 0,
        "tle_line1": "1 31862U 07032A   25344.34188856 -.00000099  00000+0  00000+0 0  9990",
        "tle_line2": "2 31862   0.0087  98.9872 0000385 118.0776 242.5518  1.00271553 43701"
      },
      "geometry": {
        "type": "Point",
        "coordinates": [
          -57.06693460812345,
          -0.0005079781681339571
        ]
      }
    },
    {
      "type": "Feature",
      "properties": {
        "norad_id": 32253,
        "name": "INTELSAT 11 (IS-11)",
        "group": "intelsat",
        "lat": -0.994850230788144,
        "lon": -80.49802006270775,
        "alt_km": 36100.60627375591,
        "timestamp": "2025-12-10T21:43:21.754176+00:00",
        "meta_object_name": "INTELSAT 11 (IS-11)",
        "meta_object_id": "2007-044B",
        "meta_epoch": "2025-12-10T08:50:38.825088",
        "meta_mean_motion": 0.99047863,
        "meta_eccentricity": 0.00090387,
        "meta_inclination": 3.0743,
        "meta_ra_of_asc_node": 81.0014,
        "meta_arg_of_pericenter": 165.0456,
        "meta_mean_anomaly": 202.0786,
        "meta_ephemeris_type": 0,
        "meta_classification_type": "U",
        "meta_norad_cat_id": 32253,
        "meta_element_set_no": 999,
        "meta_rev_at_epoch": 6658,
        "meta_bstar": 0,
        "meta_mean_motion_dot": 7.8e-07,
        "meta_mean_motion_ddot": 0,
        "tle_line1": "1 32253U 07044B   25344.36850492  .00000078  00000+0  00000+0 0  9998",
        "tle_line2": "2 32253   3.0743  81.0014 0009038 165.0456 202.0786  0.99047863 66581"
      },
      "geometry": {
        "type": "Point",
        "coordinates": [
          -80.49802006270775,
          -0.994850230788144
        ]
      }
    },
    {
      "type": "Feature",
      "properties": {
        "norad_id": 32388,
        "name": "HORIZONS-2",
        "group": "intelsat",
        "lat": -1.9803977319307198,
        "lon": -28.036837259970245,
        "alt_km": 35776.656673691774,
        "timestamp": "2025-12-10T21:43:21.754188+00:00",
        "meta_object_name": "HORIZONS-2",
        "meta_object_id": "2007-063B",
        "meta_epoch": "2025-12-10T04:15:38.659392",
        "meta_mean_motion": 1.00270369,
        "meta_eccentricity": 0.00049966,
        "meta_inclination": 2.1151,
        "meta_ra_of_asc_node": 82.986,
        "meta_arg_of_pericenter": 187.7367,
        "meta_mean_anomaly": 158.5607,
        "meta_ephemeris_type": 0,
        "meta_classification_type": "U",
        "meta_norad_cat_id": 32388,
        "meta_element_set_no": 999,
        "meta_rev_at_epoch": 6591,
        "meta_bstar": 0,
        "meta_mean_motion_dot": -2.5e-06,
        "meta_mean_motion_ddot": 0,
        "tle_line1": "1 32388U 07063B   25344.17753078 -.00000250  00000+0  00000+0 0  9992",
        "tle_line2": "2 32388   2.1151  82.9860 0004996 187.7367 158.5607  1.00270369 65917"
      },
      "geometry": {
        "type": "Point",
        "coordinates": [
          -28.036837259970245,
          -1.9803977319307198
        ]
      }
    },
    {
      "type": "Feature",
      "properties": {
        "norad_id": 32729,
        "name": "DIRECTV 11",
        "group": "intelsat",
        "lat": 0.00014207781347153178,
        "lon": -53.47963884965759,
        "alt_km": 35787.06753256669,
        "timestamp": "2025-12-10T21:43:21.754200+00:00",
        "meta_object_name": "DIRECTV 11",
        "meta_object_id": "2008-013A",
        "meta_epoch": "2025-12-10T10:29:59.969760",
        "meta_mean_motion": 1.00271438,
        "meta_eccentricity": 3.933e-05,
        "meta_inclination": 0.018,
        "meta_ra_of_asc_node": 174.7385,
        "meta_arg_of_pericenter": 9.6314,
        "meta_mean_anomaly": 313.349,
        "meta_ephemeris_type": 0,
        "meta_classification_type": "U",
        "meta_norad_cat_id": 32729,
        "meta_element_set_no": 999,
        "meta_rev_at_epoch": 4370,
        "meta_bstar": 0,
        "meta_mean_motion_dot": -1.22e-06,
        "meta_mean_motion_ddot": 0,
        "tle_line1": "1 32729U 08013A   25344.43749965 -.00000122  00000+0  00000+0 0  9994",
        "tle_line2": "2 32729   0.0180 174.7385 0000393   9.6314 313.3490  1.00271438 43700"
      },
      "geometry": {
        "type": "Point",
        "coordinates": [
          -53.47963884965759,
          0.00014207781347153178
        ]
      }
    },
    {
      "type": "Feature",
      "properties": {
        "norad_id": 32951,
        "name": "GALAXY 18 (G-18)",
        "group": "intelsat",
        "lat": -0.02020089268307591,
        "lon": -77.2789981991853,
        "alt_km": 35773.249337326844,
        "timestamp": "2025-12-10T21:43:21.754212+00:00",
        "meta_object_name": "GALAXY 18 (G-18)",
        "meta_object_id": "2008-024A",
        "meta_epoch": "2025-12-10T11:00:38.718144",
        "meta_mean_motion": 1.00272933,
        "meta_eccentricity": 0.0003129,
        "meta_inclination": 0.0166,
        "meta_ra_of_asc_node": 310.7624,
        "meta_arg_of_pericenter": 312.505,
        "meta_mean_anomaly": 218.3239,
        "meta_ephemeris_type": 0,
        "meta_classification_type": "U",
        "meta_norad_cat_id": 32951,
        "meta_element_set_no": 999,
        "meta_rev_at_epoch": 4396,
        "meta_bstar": 0,
        "meta_mean_motion_dot": 2.9e-07,
        "meta_mean_motion_ddot": 0,
        "tle_line1": "1 32951U 08024A   25344.45878146  .00000029  00000+0  00000+0 0  9994",
        "tle_line2": "2 32951   0.0166 310.7624 0003129 312.5050 218.3239  1.00272933 43966"
      },
      "geometry": {
        "type": "Point",
        "coordinates": [
          -77.2789981991853,
          -0.02020089268307591
        ]
      }
    },
    {
      "type": "Feature",
      "properties": {
        "norad_id": 33153,
        "name": "INTELSAT 25 (IS-25)",
        "group": "intelsat",
        "lat": -2.0576800946799287,
        "lon": 14.283548958461452,
        "alt_km": 35792.986135692125,
        "timestamp": "2025-12-10T21:43:21.754224+00:00",
        "meta_object_name": "INTELSAT 25 (IS-25)",
        "meta_object_id": "2008-034A",
        "meta_epoch": "2025-12-10T14:30:12.160224",
        "meta_mean_motion": 1.00270156,
        "meta_eccentricity": 0.00053568,
        "meta_inclination": 2.2225,
        "meta_ra_of_asc_node": 82.6718,
        "meta_arg_of_pericenter": 185.8898,
        "meta_mean_anomaly": 357.0641,
        "meta_ephemeris_type": 0,
        "meta_classification_type": "U",
        "meta_norad_cat_id": 33153,
        "meta_element_set_no": 999,
        "meta_rev_at_epoch": 6380,
        "meta_bstar": 0,
        "meta_mean_motion_dot": -2.2e-06,
        "meta_mean_motion_ddot": 0,
        "tle_line1": "1 33153U 08034A   25344.60430741 -.00000220  00000+0  00000+0 0  9996",
        "tle_line2": "2 33153   2.2225  82.6718 0005356 185.8898 357.0641  1.00270156 63803"
      },
      "geometry": {
        "type": "Point",
        "coordinates": [
          14.283548958461452,
          -2.0576800946799287
        ]
      }
    }
  ]
}